{"fetched_at":"2026-07-17T17:38:46.154Z","source":"https://celestrak.org/NORAD/elements/gp.php?NAME=YAM&FORMAT=JSON","constellation":"earthdaily-constellation","records":[{"OBJECT_NAME":"YAM-10","OBJECT_ID":"2025-135BE","EPOCH":"2026-07-17T06:15:06.871680","CLASSIFICATION_TYPE":"U","MEAN_MOTION":14.91904896,"ECCENTRICITY":0.00018643,"INCLINATION":97.7754,"RA_OF_ASC_NODE":311.6998,"ARG_OF_PERICENTER":235.108,"MEAN_ANOMALY":124.9963,"EPHEMERIS_TYPE":0,"NORAD_CAT_ID":64580,"ELEMENT_SET_NO":999,"REV_AT_EPOCH":5834,"BSTAR":0.00010630916,"MEAN_MOTION_DOT":0.00001019,"MEAN_MOTION_DDOT":0},{"OBJECT_NAME":"YAM-11","OBJECT_ID":"2026-100M","EPOCH":"2026-07-16T17:24:56.401920","CLASSIFICATION_TYPE":"U","MEAN_MOTION":14.9058035,"ECCENTRICITY":0.000964,"INCLINATION":97.7423,"RA_OF_ASC_NODE":94.4683,"ARG_OF_PERICENTER":356.1455,"MEAN_ANOMALY":3.9688,"EPHEMERIS_TYPE":0,"NORAD_CAT_ID":68991,"ELEMENT_SET_NO":999,"REV_AT_EPOCH":1109,"BSTAR":0.000089195436,"MEAN_MOTION_DOT":0.00000818,"MEAN_MOTION_DDOT":0},{"OBJECT_NAME":"YAM-16","OBJECT_ID":"2026-100N","EPOCH":"2026-07-17T03:21:40.109184","CLASSIFICATION_TYPE":"U","MEAN_MOTION":14.91518411,"ECCENTRICITY":0.00046404,"INCLINATION":97.7333,"RA_OF_ASC_NODE":95.0039,"ARG_OF_PERICENTER":57.9129,"MEAN_ANOMALY":302.254,"EPHEMERIS_TYPE":0,"NORAD_CAT_ID":68992,"ELEMENT_SET_NO":999,"REV_AT_EPOCH":1116,"BSTAR":0.000084920889,"MEAN_MOTION_DOT":0.00000795,"MEAN_MOTION_DDOT":0},{"OBJECT_NAME":"YAM-13","OBJECT_ID":"2026-100P","EPOCH":"2026-07-16T22:47:38.069088","CLASSIFICATION_TYPE":"U","MEAN_MOTION":14.90413395,"ECCENTRICITY":0.00094385,"INCLINATION":97.7334,"RA_OF_ASC_NODE":94.7916,"ARG_OF_PERICENTER":352.8717,"MEAN_ANOMALY":7.2365,"EPHEMERIS_TYPE":0,"NORAD_CAT_ID":68993,"ELEMENT_SET_NO":999,"REV_AT_EPOCH":1113,"BSTAR":0.000074440603,"MEAN_MOTION_DOT":0.00000671,"MEAN_MOTION_DDOT":0},{"OBJECT_NAME":"YAM-15","OBJECT_ID":"2026-100T","EPOCH":"2026-07-17T03:17:46.808448","CLASSIFICATION_TYPE":"U","MEAN_MOTION":14.90655958,"ECCENTRICITY":0.00091875,"INCLINATION":97.7325,"RA_OF_ASC_NODE":95.0005,"ARG_OF_PERICENTER":6.0714,"MEAN_ANOMALY":354.0614,"EPHEMERIS_TYPE":0,"NORAD_CAT_ID":68997,"ELEMENT_SET_NO":999,"REV_AT_EPOCH":1116,"BSTAR":0.000081228133,"MEAN_MOTION_DOT":0.00000741,"MEAN_MOTION_DDOT":0},{"OBJECT_NAME":"YAM-12","OBJECT_ID":"2026-100Z","EPOCH":"2026-07-16T17:00:54.188928","CLASSIFICATION_TYPE":"U","MEAN_MOTION":14.9046172,"ECCENTRICITY":0.00098058,"INCLINATION":97.7364,"RA_OF_ASC_NODE":94.4683,"ARG_OF_PERICENTER":347.191,"MEAN_ANOMALY":12.9057,"EPHEMERIS_TYPE":0,"NORAD_CAT_ID":69003,"ELEMENT_SET_NO":999,"REV_AT_EPOCH":1108,"BSTAR":0.00021644634,"MEAN_MOTION_DOT":0.00002058,"MEAN_MOTION_DDOT":0},{"OBJECT_NAME":"YAM-14","OBJECT_ID":"2026-100AE","EPOCH":"2026-07-16T23:17:35.118240","CLASSIFICATION_TYPE":"U","MEAN_MOTION":14.90353088,"ECCENTRICITY":0.00059354,"INCLINATION":97.7375,"RA_OF_ASC_NODE":94.7442,"ARG_OF_PERICENTER":23.7054,"MEAN_ANOMALY":336.4436,"EPHEMERIS_TYPE":0,"NORAD_CAT_ID":69008,"ELEMENT_SET_NO":999,"REV_AT_EPOCH":1112,"BSTAR":0.000071447933,"MEAN_MOTION_DOT":0.0000064,"MEAN_MOTION_DDOT":0}]}
